CYGNUS NG-23            
1 65616U 25208A   26005.21007013  .00011029  00000+0  20718-3 0  9991
2 65616  51.6325  26.2661 0007559 342.6147  17.4581 15.49105990   227
DRAGONFLY               
1 65729U 98067XH  26005.25607600  .00356045  00000+0  15848-2 0  9998
2 65729  51.6226  14.5241 0008650  52.9557 307.2235 15.82735395 16874
1998-067XK              
1 65731U 98067XK  26005.24867038  .00152969  00000+0  11627-2 0  9993
2 65731  51.6285  17.5224 0005223  27.9465 332.1813 15.71286282 16838
RSP-03                  
1 65732U 98067XL  26005.26086524  .00225689  00000+0  13692-2 0  9993
2 65732  51.6254  16.0815 0006448  34.8932 325.2490 15.76291933 16862
GHS-01                  
1 65733U 98067XM  26005.26759737  .00529026  11769-3  17284-2 0  9998
2 65733  51.6256  13.1042 0009395  58.5879 301.6044 15.89985351 16908
YOTSUBA-KULOVER         
1 65941U 98067XN  26005.33323460  .00101856  00000+0  10802-2 0  9995
2 65941  51.6290  21.0929 0003759  56.0324 304.1027 15.63278983 13549
BOTAN                   
1 65942U 98067XP  26005.27220087  .00168177  00000+0  14036-2 0  9992
2 65942  51.6277  19.9288 0004507  48.4983 311.6401 15.68988816 13555
E-KAGAKU-1              
1 65943U 98067XQ  26005.33313382  .00100451  00000+0  10653-2 0  9993
2 65943  51.6303  21.0978 0002309  51.2346 308.8854 15.63289724 13545
HRC MONOBLOCK CAMERA    
1 66052U 98067XR  26004.40198584  .00040227  00000+0  57327-3 0  9991
2 66052  51.6308  28.3723 0001425 307.8103  52.2759 15.55907384 12362
HTV-X1                  
1 66174U 25241A   26005.21007013  .00011029  00000+0  20718-3 0  9998
2 66174  51.6325  26.2661 0007559 342.6147  17.4581 15.49105990   519
SZ-21 MODULE            
1 66515U 25246C   26004.98707992  .00031246  00000+0  32469-3 0  9997
2 66515  41.4747 234.0941 0001852  45.0993 314.9997 15.63935128  8082
SHENZHOU-22             
1 66645U 25272A   26005.27870377  .00016482  00000+0  19983-3 0  9992
2 66645  41.4649 233.6974 0010818 223.3852 136.6136 15.60193416267494
